[{"OBJECT_NAME":"GECAM-B","OBJECT_ID":"2020-094B","EPOCH":"2026-02-27T04:39:26.451360","MEAN_MOTION":15.01652363,"ECCENTRICITY":0.0010635,"INCLINATION":28.9982,"RA_OF_ASC_NODE":10.8844,"ARG_OF_PERICENTER":257.2071,"MEAN_ANOMALY":102.7339,"EPHEMERIS_TYPE":0,"CLASSIFICATION_TYPE":"U","NORAD_CAT_ID":47235,"ELEMENT_SET_NO":999,"REV_AT_EPOCH":28517,"BSTAR":0.00023073,"MEAN_MOTION_DOT":3.224e-5,"MEAN_MOTION_DDOT":0},{"OBJECT_NAME":"STARLINK-34781","OBJECT_ID":"2025-165T","EPOCH":"2026-03-09T19:25:09.117120","MEAN_MOTION":15.05647045,"ECCENTRICITY":0.00010435,"INCLINATION":97.6023,"RA_OF_ASC_NODE":147.4275,"ARG_OF_PERICENTER":112.58,"MEAN_ANOMALY":247.5538,"EPHEMERIS_TYPE":0,"CLASSIFICATION_TYPE":"U","NORAD_CAT_ID":65073,"ELEMENT_SET_NO":999,"REV_AT_EPOCH":3481,"BSTAR":0.00036232994,"MEAN_MOTION_DOT":5.171e-5,"MEAN_MOTION_DDOT":0}]
